ONEWEB-0628             
1 55169U 23004AF  25342.65867801  .00000450  00000+0  12143-2 0  9993
2 55169  87.8944  28.4984 0001826 121.0865 239.0442 13.12442036143045
ONEWEB-0629             
1 55170U 23004AG  25342.66558117  .00000064  00000+0  13204-3 0  9994
2 55170  87.9112  43.7621 0001988 107.8394 252.2954 13.17648640142498
ONEWEB-0631             
1 55171U 23004AH  25342.80287427  .00000117  00000+0  26324-3 0  9990
2 55171  87.9184  13.2450 0001277  83.6168 276.5109 13.18686831144589
ONEWEB-0709             
1 55172U 23004AJ  25342.76758548 -.00000037  00000+0 -13928-3 0  9992
2 55172  87.8855  59.0061 0001470  71.1588 288.9699 13.11417071140918
ONEWEB-0710             
1 55173U 23004AK  25342.67992673  .00000099  00000+0  22183-3 0  9991
2 55173  87.9110  43.7537 0001595 105.9941 254.1366 13.17649190142495
ONEWEB-0711             
1 55174U 23004AL  25342.73878374  .00000564  00000+0  15570-2 0  9998
2 55174  87.8866  58.9854 0001418 133.0499 227.0748 13.11412865140871
ONEWEB-0713             
1 55175U 23004AM  25342.75742915  .00000307  00000+0  83064-3 0  9991
2 55175  87.8857  58.9845 0001500 118.7052 241.4227 13.11413568140861
ONEWEB-0715             
1 55176U 23004AN  25342.75233907  .00000473  00000+0  12992-2 0  9993
2 55176  87.8859  58.9859 0001118  82.1577 277.9678 13.11416946140902
